{"fetched_at":"2026-07-09T08:00:57.431Z","source":"https://celestrak.org/NORAD/elements/gp.php?NAME=KINEIS&FORMAT=JSON","constellation":"kineis","records":[{"OBJECT_NAME":"KINEIS-1B","OBJECT_ID":"2024-114A","EPOCH":"2026-07-09T00:22:00.592896","CLASSIFICATION_TYPE":"U","MEAN_MOTION":14.80660721,"ECCENTRICITY":0.00033707,"INCLINATION":97.9826,"RA_OF_ASC_NODE":214.0965,"ARG_OF_PERICENTER":51.9271,"MEAN_ANOMALY":308.2245,"EPHEMERIS_TYPE":0,"NORAD_CAT_ID":60079,"ELEMENT_SET_NO":999,"REV_AT_EPOCH":11063,"BSTAR":0.000073903814,"MEAN_MOTION_DOT":0.00000515,"MEAN_MOTION_DDOT":0},{"OBJECT_NAME":"KINEIS-1C","OBJECT_ID":"2024-114C","EPOCH":"2026-07-08T21:55:49.518912","CLASSIFICATION_TYPE":"U","MEAN_MOTION":14.80662691,"ECCENTRICITY":0.00025127,"INCLINATION":97.9841,"RA_OF_ASC_NODE":213.8494,"ARG_OF_PERICENTER":102.7582,"MEAN_ANOMALY":257.3911,"EPHEMERIS_TYPE":0,"NORAD_CAT_ID":60081,"ELEMENT_SET_NO":999,"REV_AT_EPOCH":11059,"BSTAR":0.000075929228,"MEAN_MOTION_DOT":0.00000531,"MEAN_MOTION_DDOT":0},{"OBJECT_NAME":"KINEIS-1D","OBJECT_ID":"2024-114D","EPOCH":"2026-07-09T00:04:58.918944","CLASSIFICATION_TYPE":"U","MEAN_MOTION":14.76357563,"ECCENTRICITY":0.00028543,"INCLINATION":97.9877,"RA_OF_ASC_NODE":209.9005,"ARG_OF_PERICENTER":107.6992,"MEAN_ANOMALY":252.453,"EPHEMERIS_TYPE":0,"NORAD_CAT_ID":60082,"ELEMENT_SET_NO":999,"REV_AT_EPOCH":11034,"BSTAR":0.000074761811,"MEAN_MOTION_DOT":0.00000468,"MEAN_MOTION_DDOT":0},{"OBJECT_NAME":"KINEIS-1E","OBJECT_ID":"2024-114E","EPOCH":"2026-07-08T23:58:56.331840","CLASSIFICATION_TYPE":"U","MEAN_MOTION":14.80686903,"ECCENTRICITY":0.00039076,"INCLINATION":97.8942,"RA_OF_ASC_NODE":213.0724,"ARG_OF_PERICENTER":122.4553,"MEAN_ANOMALY":237.7037,"EPHEMERIS_TYPE":0,"NORAD_CAT_ID":60083,"ELEMENT_SET_NO":999,"REV_AT_EPOCH":11061,"BSTAR":0.000092290919,"MEAN_MOTION_DOT":0.00000658,"MEAN_MOTION_DDOT":0},{"OBJECT_NAME":"KINEIS-1A","OBJECT_ID":"2024-114F","EPOCH":"2026-07-08T23:09:42.931008","CLASSIFICATION_TYPE":"U","MEAN_MOTION":14.80675797,"ECCENTRICITY":0.00056164,"INCLINATION":97.8916,"RA_OF_ASC_NODE":213.1347,"ARG_OF_PERICENTER":77.2929,"MEAN_ANOMALY":282.8911,"EPHEMERIS_TYPE":0,"NORAD_CAT_ID":60084,"ELEMENT_SET_NO":999,"REV_AT_EPOCH":11061,"BSTAR":0.000075144239,"MEAN_MOTION_DOT":0.00000526,"MEAN_MOTION_DDOT":0},{"OBJECT_NAME":"KINEIS-3C","OBJECT_ID":"2024-172A","EPOCH":"2026-07-08T19:41:03.998688","CLASSIFICATION_TYPE":"U","MEAN_MOTION":14.72355818,"ECCENTRICITY":0.00027496,"INCLINATION":98.0431,"RA_OF_ASC_NODE":279.49,"ARG_OF_PERICENTER":92.2536,"MEAN_ANOMALY":267.8986,"EPHEMERIS_TYPE":0,"NORAD_CAT_ID":61220,"ELEMENT_SET_NO":999,"REV_AT_EPOCH":9625,"BSTAR":0.00019489517,"MEAN_MOTION_DOT":0.00001184,"MEAN_MOTION_DDOT":0},{"OBJECT_NAME":"KINEIS-3D","OBJECT_ID":"2024-172B","EPOCH":"2026-07-08T19:31:21.430272","CLASSIFICATION_TYPE":"U","MEAN_MOTION":14.72360142,"ECCENTRICITY":0.00026129,"INCLINATION":98.0427,"RA_OF_ASC_NODE":279.4937,"ARG_OF_PERICENTER":92.0165,"MEAN_ANOMALY":268.1342,"EPHEMERIS_TYPE":0,"NORAD_CAT_ID":61221,"ELEMENT_SET_NO":999,"REV_AT_EPOCH":9653,"BSTAR":0.0001825622,"MEAN_MOTION_DOT":0.00001106,"MEAN_MOTION_DDOT":0},{"OBJECT_NAME":"KINEIS-3E","OBJECT_ID":"2024-172C","EPOCH":"2026-07-08T19:06:54.318528","CLASSIFICATION_TYPE":"U","MEAN_MOTION":14.72325929,"ECCENTRICITY":0.00018658,"INCLINATION":98.0428,"RA_OF_ASC_NODE":279.4585,"ARG_OF_PERICENTER":92.7727,"MEAN_ANOMALY":267.3694,"EPHEMERIS_TYPE":0,"NORAD_CAT_ID":61222,"ELEMENT_SET_NO":999,"REV_AT_EPOCH":9653,"BSTAR":0.00021472925,"MEAN_MOTION_DOT":0.00001308,"MEAN_MOTION_DDOT":0},{"OBJECT_NAME":"KINEIS-3A","OBJECT_ID":"2024-172D","EPOCH":"2026-07-08T18:43:04.147968","CLASSIFICATION_TYPE":"U","MEAN_MOTION":14.72296248,"ECCENTRICITY":0.00026027,"INCLINATION":98.0425,"RA_OF_ASC_NODE":279.5405,"ARG_OF_PERICENTER":54.9359,"MEAN_ANOMALY":305.2092,"EPHEMERIS_TYPE":0,"NORAD_CAT_ID":61223,"ELEMENT_SET_NO":999,"REV_AT_EPOCH":9595,"BSTAR":0.00023127902,"MEAN_MOTION_DOT":0.00001412,"MEAN_MOTION_DDOT":0},{"OBJECT_NAME":"KINEIS-3B","OBJECT_ID":"2024-172E","EPOCH":"2026-07-08T18:17:57.856416","CLASSIFICATION_TYPE":"U","MEAN_MOTION":14.72282381,"ECCENTRICITY":0.00021057,"INCLINATION":98.0418,"RA_OF_ASC_NODE":279.5462,"ARG_OF_PERICENTER":42.6995,"MEAN_ANOMALY":317.4375,"EPHEMERIS_TYPE":0,"NORAD_CAT_ID":61224,"ELEMENT_SET_NO":999,"REV_AT_EPOCH":9652,"BSTAR":0.00022416417,"MEAN_MOTION_DOT":0.00001366,"MEAN_MOTION_DDOT":0},{"OBJECT_NAME":"KINEIS-5C","OBJECT_ID":"2024-219A","EPOCH":"2026-07-08T22:38:50.928000","CLASSIFICATION_TYPE":"U","MEAN_MOTION":14.72309355,"ECCENTRICITY":0.00036461,"INCLINATION":97.906,"RA_OF_ASC_NODE":348.1938,"ARG_OF_PERICENTER":192.7103,"MEAN_ANOMALY":167.4013,"EPHEMERIS_TYPE":0,"NORAD_CAT_ID":62081,"ELEMENT_SET_NO":999,"REV_AT_EPOCH":8695,"BSTAR":0.000078176295,"MEAN_MOTION_DOT":0.00000446,"MEAN_MOTION_DDOT":0},{"OBJECT_NAME":"KINEIS-5D","OBJECT_ID":"2024-219B","EPOCH":"2026-07-08T21:40:15.762144","CLASSIFICATION_TYPE":"U","MEAN_MOTION":14.72486055,"ECCENTRICITY":0.00047593,"INCLINATION":97.9173,"RA_OF_ASC_NODE":348.2117,"ARG_OF_PERICENTER":186.7204,"MEAN_ANOMALY":173.3941,"EPHEMERIS_TYPE":0,"NORAD_CAT_ID":62082,"ELEMENT_SET_NO":999,"REV_AT_EPOCH":8695,"BSTAR":0.00010885104,"MEAN_MOTION_DOT":0.00000642,"MEAN_MOTION_DDOT":0},{"OBJECT_NAME":"KINEIS-5E","OBJECT_ID":"2024-219C","EPOCH":"2026-07-08T22:04:44.433408","CLASSIFICATION_TYPE":"U","MEAN_MOTION":14.72294208,"ECCENTRICITY":0.00062553,"INCLINATION":97.9017,"RA_OF_ASC_NODE":348.2685,"ARG_OF_PERICENTER":183.7616,"MEAN_ANOMALY":176.3546,"EPHEMERIS_TYPE":0,"NORAD_CAT_ID":62083,"ELEMENT_SET_NO":999,"REV_AT_EPOCH":8696,"BSTAR":0.000072594687,"MEAN_MOTION_DOT":0.0000041,"MEAN_MOTION_DDOT":0},{"OBJECT_NAME":"KINEIS-5A","OBJECT_ID":"2024-219D","EPOCH":"2026-07-08T23:10:53.901696","CLASSIFICATION_TYPE":"U","MEAN_MOTION":14.7223535,"ECCENTRICITY":0.00033105,"INCLINATION":97.8958,"RA_OF_ASC_NODE":348.5978,"ARG_OF_PERICENTER":223.5421,"MEAN_ANOMALY":136.5526,"EPHEMERIS_TYPE":0,"NORAD_CAT_ID":62084,"ELEMENT_SET_NO":999,"REV_AT_EPOCH":8697,"BSTAR":0.00014336624,"MEAN_MOTION_DOT":0.00000856,"MEAN_MOTION_DDOT":0},{"OBJECT_NAME":"KINEIS-5B","OBJECT_ID":"2024-219E","EPOCH":"2026-07-08T21:49:40.572768","CLASSIFICATION_TYPE":"U","MEAN_MOTION":14.78376804,"ECCENTRICITY":0.00020525,"INCLINATION":98.0083,"RA_OF_ASC_NODE":353.62,"ARG_OF_PERICENTER":158.2486,"MEAN_ANOMALY":201.8812,"EPHEMERIS_TYPE":0,"NORAD_CAT_ID":62085,"ELEMENT_SET_NO":999,"REV_AT_EPOCH":8721,"BSTAR":0.00011028101,"MEAN_MOTION_DOT":0.00000751,"MEAN_MOTION_DDOT":0},{"OBJECT_NAME":"KINEIS-2C","OBJECT_ID":"2025-028B","EPOCH":"2026-07-08T15:28:51.742848","CLASSIFICATION_TYPE":"U","MEAN_MOTION":14.73416885,"ECCENTRICITY":0.00037141,"INCLINATION":98.1233,"RA_OF_ASC_NODE":244.0616,"ARG_OF_PERICENTER":177.4004,"MEAN_ANOMALY":182.7224,"EPHEMERIS_TYPE":0,"NORAD_CAT_ID":62929,"ELEMENT_SET_NO":999,"REV_AT_EPOCH":7577,"BSTAR":0.0001911901,"MEAN_MOTION_DOT":0.00001189,"MEAN_MOTION_DDOT":0}]}
