KINEIS-1B               
1 60079U 24114A   26190.01528464  .00000515  00000+0  73904-4 0  9999
2 60079  97.9826 214.0965 0003370  51.9271 308.2245 14.80660721110630
KINEIS-1C               
1 60081U 24114C   26189.91376758  .00000531  00000+0  75929-4 0  9993
2 60081  97.9841 213.8494 0002512 102.7582 257.3911 14.80662691110598
KINEIS-1D               
1 60082U 24114D   26190.00345971  .00000468  00000+0  74762-4 0  9992
2 60082  97.9877 209.9005 0002854 107.6992 252.4530 14.76357563110340
KINEIS-1E               
1 60083U 24114E   26189.99926310  .00000658  00000+0  92291-4 0  9999
2 60083  97.8942 213.0724 0003907 122.4553 237.7037 14.80686903110611
KINEIS-1A               
1 60084U 24114F   26189.96508022  .00000526  00000+0  75144-4 0  9995
2 60084  97.8916 213.1347 0005616  77.2929 282.8911 14.80675797110619
KINEIS-3C               
1 61220U 24172A   26189.82018517  .00001184  00000+0  19490-3 0  9994
2 61220  98.0431 279.4900 0002749  92.2536 267.8986 14.72355818 96250
KINEIS-3D               
1 61221U 24172B   26189.81344248  .00001106  00000+0  18256-3 0  9990
2 61221  98.0427 279.4937 0002612  92.0165 268.1342 14.72360142 96538
KINEIS-3E               
1 61222U 24172C   26189.79646202  .00001308  00000+0  21473-3 0  9992
2 61222  98.0428 279.4585 0001865  92.7727 267.3694 14.72325929 96534
KINEIS-3A               
1 61223U 24172D   26189.77990912  .00001412  00000+0  23128-3 0  9996
2 61223  98.0425 279.5405 0002602  54.9359 305.2092 14.72296248 95955
KINEIS-3B               
1 61224U 24172E   26189.76247519  .00001366  00000+0  22416-3 0  9991
2 61224  98.0418 279.5462 0002105  42.6995 317.4375 14.72282381 96525
KINEIS-5C               
1 62081U 24219A   26189.94364500  .00000446  00000+0  78176-4 0  9998
2 62081  97.9060 348.1938 0003646 192.7103 167.4013 14.72309355 86957
KINEIS-5D               
1 62082U 24219B   26189.90296021  .00000642  00000+0  10885-3 0  9997
2 62082  97.9173 348.2117 0004759 186.7204 173.3941 14.72486055 86953
KINEIS-5E               
1 62083U 24219C   26189.91995872  .00000410  00000+0  72595-4 0  9999
2 62083  97.9017 348.2685 0006255 183.7616 176.3546 14.72294208 86960
KINEIS-5A               
1 62084U 24219D   26189.96590164  .00000856  00000+0  14337-3 0  9993
2 62084  97.8958 348.5978 0003310 223.5421 136.5526 14.72235350 86978
KINEIS-5B               
1 62085U 24219E   26189.90949737  .00000751  00000+0  11028-3 0  9990
2 62085  98.0083 353.6200 0002052 158.2486 201.8812 14.78376804 87211
KINEIS-2C               
1 62929U 25028B   26189.64504332  .00001189  00000+0  19119-3 0  9990
2 62929  98.1233 244.0616 0003714 177.4004 182.7224 14.73416885 75776
